[{"OBJECT_NAME":"HUNITY","OBJECT_ID":"2025-276E","EPOCH":"2026-03-09T18:00:58.161024","MEAN_MOTION":15.21896165,"ECCENTRICITY":0.0006587,"INCLINATION":97.4154,"RA_OF_ASC_NODE":144.0054,"ARG_OF_PERICENTER":10.2177,"MEAN_ANOMALY":349.9192,"EPHEMERIS_TYPE":0,"CLASSIFICATION_TYPE":"U","NORAD_CAT_ID":66670,"ELEMENT_SET_NO":999,"REV_AT_EPOCH":1533,"BSTAR":0.001210955,"MEAN_MOTION_DOT":0.0002759,"MEAN_MOTION_DDOT":0},{"OBJECT_NAME":"OBJECT AF","OBJECT_ID":"2025-313AF","EPOCH":"2026-03-09T22:40:24.568320","MEAN_MOTION":15.21283036,"ECCENTRICITY":0.00138127,"INCLINATION":97.398,"RA_OF_ASC_NODE":145.1678,"ARG_OF_PERICENTER":3.4276,"MEAN_ANOMALY":356.7052,"EPHEMERIS_TYPE":0,"CLASSIFICATION_TYPE":"U","NORAD_CAT_ID":67277,"ELEMENT_SET_NO":999,"REV_AT_EPOCH":1085,"BSTAR":0.00037771518,"MEAN_MOTION_DOT":8.4e-5,"MEAN_MOTION_DDOT":0}]
